ACS3                    
1 59588U 24077B   24238.89220547  .00000025  00000+0  63773-4 0  9997
2 59588  97.4006 290.8671 0018821 263.2767  96.6242 13.67700303 16937
